NORAD_CAT_ID,OBJECT_NAME,OBJECT_TYPE,EPOCH,MEAN_MOTION,ECCENTRICITY,INCLINATION,RA_OF_ASC_NODE,ARG_OF_PERICENTER,MEAN_ANOMALY,BSTAR,MEAN_MOTION_DOT,MEAN_MOTION_DDOT,TLE_LINE0,TLE_LINE1,TLE_LINE2,SEMIMAJOR_AXIS,PERIOD,APOGEE,PERIGEE,DECAYED
52604.0,STARLINK-4013,PAYLOAD,2024-01-01 22:14:19,15.08850244,0.0001564,53.216,260.4162,113.8528,246.2628,0.00016504,2.34e-05,0.0,0 STARLINK-4013,1 52604U 22052G   24001.92661986  .00002340  00000-0  16504-3 0  9990,2 52604  53.2160 260.4162 0001564 113.8528 246.2628 15.08850244 90423,6917.849,95.437,540.796,538.632,0.0
52604.0,STARLINK-4013,PAYLOAD,2024-01-02 03:00:29,15.0884833,0.0001493,53.2158,259.5253,108.6805,251.4349,0.00015568,2.191e-05,0.0,0 STARLINK-4013,1 52604U 22052G   24002.12534058  .00002191  00000-0  15568-3 0  9995,2 52604  53.2158 259.5253 0001493 108.6805 251.4349 15.08848330 90455,6917.855,95.437,540.753,538.687,0.0
52604.0,STARLINK-4013,PAYLOAD,2024-01-02 17:18:57,15.08849045,0.0001486,53.2161,256.8492,108.2052,251.9102,-5.0023e-05,-1.084e-05,0.0,0 STARLINK-4013,1 52604U 22052G   24002.72149952 -.00001084  00000-0 -50023-4 0  9994,2 52604  53.2161 256.8492 0001486 108.2052 251.9102 15.08849045 90913,6917.853,95.437,540.746,538.69,0.0
52604.0,STARLINK-4013,PAYLOAD,2024-01-02 22:05:07,15.08842879,0.0001442,53.2156,255.957,108.1719,251.943,2.6801e-05,1.39e-06,0.0,0 STARLINK-4013,1 52604U 22052G   24002.92022149  .00000139  00000-0  26801-4 0  9999,2 52604  53.2156 255.9570 0001442 108.1719 251.9430 15.08842879 90579,6917.872,95.437,540.734,538.739,0.0
52604.0,STARLINK-4013,PAYLOAD,2024-01-02 23:40:30,15.08843091,0.0001424,53.2156,255.6597,107.1694,252.9454,2.4167e-05,9.7e-07,0.0,0 STARLINK-4013,1 52604U 22052G   24002.98646111  .00000097  00000-0  24167-4 0  9992,2 52604  53.2156 255.6597 0001424 107.1694 252.9454 15.08843091 90581,6917.871,95.437,540.721,538.751,0.0
52604.0,STARLINK-4013,PAYLOAD,2024-01-03 20:20:31,15.0883718,0.0001498,53.2171,251.7945,109.4723,250.6431,-2.086e-05,-6.2e-06,0.0,0 STARLINK-4013,1 52604U 22052G   24003.84758831 -.00000620  00000-0 -20860-4 0  9991,2 52604  53.2171 251.7945 0001498 109.4723 250.6431 15.08837180 91089,6917.889,95.438,540.79,538.718,0.0
52604.0,STARLINK-4013,PAYLOAD,2024-01-03 21:55:54,15.08837262,0.0001501,53.2174,251.4971,110.097,250.0184,-2.5914e-05,-7e-06,0.0,0 STARLINK-4013,1 52604U 22052G   24003.91382833 -.00000700  00000-0 -25914-4 0  9998,2 52604  53.2174 251.4971 0001501 110.0970 250.0184 15.08837262 90725,6917.889,95.438,540.792,538.715,0.0
52604.0,STARLINK-4013,PAYLOAD,2024-01-04 02:42:04,15.08835138,0.0001474,53.2173,250.6055,108.4484,251.6669,-4.4599e-05,-9.98e-06,0.0,0 STARLINK-4013,1 52604U 22052G   24004.11255051 -.00000998  00000-0 -44599-4 0  9991,2 52604  53.2173 250.6055 0001474 108.4484 251.6669 15.08835138 90756,6917.895,95.438,540.78,538.741,0.0
52604.0,STARLINK-4013,PAYLOAD,2024-01-04 21:46:41,15.08840162,0.000142,53.2173,247.0403,102.3108,257.8043,7.9833e-05,9.83e-06,0.0,0 STARLINK-4013,1 52604U 22052G   24004.90742506  .00000983  00000-0  79833-4 0  9995,2 52604  53.2173 247.0403 0001420 102.3108 257.8043 15.08840162 90870,6917.88,95.438,540.727,538.763,0.0
52604.0,STARLINK-4013,PAYLOAD,2024-01-05 00:57:27,15.08842357,0.000136,53.217,246.4453,99.076,261.0387,9.6673e-05,1.251e-05,0.0,0 STARLINK-4013,1 52604U 22052G   24005.03990333  .00001251  00000-0  96673-4 0  9993,2 52604  53.2170 246.4453 0001360  99.0760 261.0387 15.08842357 91264,6917.873,95.437,540.679,538.797,0.0
52604.0,STARLINK-4013,PAYLOAD,2024-01-05 20:02:06,15.08831329,0.0001425,53.2174,242.8777,102.715,257.4001,3.1953e-05,2.21e-06,0.0,0 STARLINK-4013,1 52604U 22052G   24005.83479523  .00000221  00000-0  31953-4 0  9990,2 52604  53.2174 242.8777 0001425 102.7150 257.4001 15.08831329 91386,6917.907,95.438,540.758,538.786,0.0
52604.0,STARLINK-4013,PAYLOAD,2024-01-05 21:37:29,15.08834971,0.0001481,53.2165,242.5802,102.0114,258.1044,5.5239e-05,5.91e-06,0.0,0 STARLINK-4013,1 52604U 22052G   24005.90103279  .00000591  00000-0  55239-4 0  9993,2 52604  53.2165 242.5802 0001481 102.0114 258.1044 15.08834971 91029,6917.896,95.438,540.785,538.736,0.0
52604.0,STARLINK-4013,PAYLOAD,2024-01-06 00:48:15,15.08835959,0.0001387,53.2164,241.9843,86.1467,273.9684,5.3498e-05,5.64e-06,0.0,0 STARLINK-4013,1 52604U 22052G   24006.03351319  .00000564  00000-0  53498-4 0  9993,2 52604  53.2164 241.9843 0001387  86.1467 273.9684 15.08835959 91048,6917.893,95.438,540.717,538.798,0.0
52604.0,STARLINK-4013,PAYLOAD,2024-01-06 21:28:16,15.08840632,0.0001389,53.2162,238.1169,97.7144,262.4006,-1.2421e-05,-4.86e-06,0.0,0 STARLINK-4013,1 52604U 22052G   24006.89463370 -.00000486  00000-0 -12421-4 0  9994,2 52604  53.2162 238.1169 0001389  97.7144 262.4006 15.08840632 91176,6917.878,95.438,540.704,538.783,0.0
52604.0,STARLINK-4013,PAYLOAD,2024-01-06 23:03:39,15.08839842,0.0001363,53.2165,237.8201,83.6228,276.4919,2.8012e-05,1.58e-06,0.0,0 STARLINK-4013,1 52604U 22052G   24006.96087350  .00000158  00000-0  28012-4 0  9999,2 52604  53.2165 237.8201 0001363  83.6228 276.4919 15.08839842 91552,6917.881,95.438,540.689,538.803,0.0
52604.0,STARLINK-4013,PAYLOAD,2024-01-07 14:57:30,15.08842739,0.0001616,53.2166,234.8481,79.1515,280.9659,0.00010947,1.455e-05,0.0,0 STARLINK-4013,1 52604U 22052G   24007.62327123  .00001455  00000-0  10947-3 0  9996,2 52604  53.2166 234.8481 0001616  79.1515 280.9659 15.08842739 91280,6917.872,95.437,540.855,538.619,0.0
52604.0,STARLINK-4013,PAYLOAD,2024-01-07 21:19:03,15.08844762,0.0001648,53.2167,233.6589,78.1359,281.9818,0.00012146,1.646e-05,0.0,0 STARLINK-4013,1 52604U 22052G   24007.88822934  .00001646  00000-0  12146-3 0  9999,2 52604  53.2167 233.6589 0001648  78.1359 281.9818 15.08844762 91328,6917.866,95.437,540.871,538.591,0.0
52604.0,STARLINK-4013,PAYLOAD,2024-01-08 00:29:49,15.08847786,0.0001616,53.2166,233.0632,81.267,278.8505,0.00014381,2.002e-05,0.0,0 STARLINK-4013,1 52604U 22052G   24008.02070632  .00002002  00000-0  14381-3 0  9996,2 52604  53.2166 233.0632 0001616  81.2670 278.8505 15.08847786 91716,6917.857,95.437,540.84,538.604,0.0
52604.0,STARLINK-4013,PAYLOAD,2024-01-08 19:34:27,15.08840407,0.0001453,53.2163,229.4937,100.8369,259.2786,3.0571e-05,1.99e-06,0.0,0 STARLINK-4013,1 52604U 22052G   24008.81559294  .00000199  00000-0  30571-4 0  9994,2 52604  53.2163 229.4937 0001453 100.8369 259.2786 15.08840407 91832,6917.879,95.438,540.749,538.739,0.0
52604.0,STARLINK-4013,PAYLOAD,2024-01-08 21:09:50,15.08841356,0.000145,53.2167,229.1934,94.3804,265.7354,4.3662e-05,4.07e-06,0.0,0 STARLINK-4013,1 52604U 22052G   24008.88183203  .00000407  00000-0  43662-4 0  9991,2 52604  53.2167 229.1934 0001450  94.3804 265.7354 15.08841356 91475,6917.876,95.437,540.744,538.738,0.0
52604.0,STARLINK-4013,PAYLOAD,2024-01-09 14:39:04,15.08845333,0.0001612,53.2169,225.9241,109.4792,250.6375,1.2787e-05,-8.5e-07,0.0,0 STARLINK-4013,1 52604U 22052G   24009.61046939 -.00000085  00000-0  12787-4 0  9994,2 52604  53.2169 225.9241 0001612 109.4792 250.6375 15.08845333 91583,6917.864,95.437,540.844,538.614,0.0
52604.0,STARLINK-4013,PAYLOAD,2024-01-09 19:25:13,15.08845944,0.0001643,53.2169,225.0322,112.2805,247.8361,1.9411e-05,2.1e-07,0.0,0 STARLINK-4013,1 52604U 22052G   24009.80918774  .00000021  00000-0  19411-4 0  9990,2 52604  53.2169 225.0322 0001643 112.2805 247.8361 15.08845944 91610,6917.862,95.437,540.864,538.591,0.0
52604.0,STARLINK-4013,PAYLOAD,2024-01-10 00:11:23,15.08845029,0.0001646,53.217,224.1404,112.2105,247.9062,1.2159e-05,-9.5e-07,0.0,0 STARLINK-4013,1 52604U 22052G   24010.00790783 -.00000095  00000-0  12159-4 0  9996,2 52604  53.2170 224.1404 0001646 112.2105 247.9062 15.08845029 92017,6917.865,95.437,540.869,538.591,0.0
52604.0,STARLINK-4013,PAYLOAD,2024-01-10 19:16:01,15.08836533,0.0001392,53.2163,220.5713,93.7435,266.3716,3.31e-05,2.39e-06,0.0,0 STARLINK-4013,1 52604U 22052G   24010.80279464  .00000239  00000-0  33100-4 0  9990,2 52604  53.2163 220.5713 0001392  93.7435 266.3716 15.08836533 92133,6917.891,95.438,540.719,538.793,0.0
52604.0,STARLINK-4013,PAYLOAD,2024-01-10 20:51:24,15.08836973,0.0001389,53.2163,220.2739,93.2314,266.8837,3.6088e-05,2.86e-06,0.0,0 STARLINK-4013,1 52604U 22052G   24010.86903459  .00000286  00000-0  36088-4 0  9994,2 52604  53.2163 220.2739 0001389  93.2314 266.8837 15.08836973 91771,6917.89,95.438,540.716,538.794,0.0
52604.0,STARLINK-4013,PAYLOAD,2024-01-11 19:06:50,15.08821615,0.0001353,53.2162,216.1112,93.4923,266.6224,-8.2975e-05,-1.608e-05,0.0,0 STARLINK-4013,1 52604U 22052G   24011.79641888 -.00001608  00000-0 -82975-4 0  9999,2 52604  53.2162 216.1112 0001353  93.4923 266.6224 15.08821615 92280,6917.937,95.439,540.738,538.866,0.0
52604.0,STARLINK-4013,PAYLOAD,2024-01-11 22:17:36,15.08829613,0.0001445,53.2161,215.5167,98.7234,261.3922,-5.6484e-06,-3.78e-06,0.0,0 STARLINK-4013,1 52604U 22052G   24011.92889286 -.00000378  00000-0 -56484-5 0  9990,2 52604  53.2161 215.5167 0001445  98.7234 261.3922 15.08829613 92303,6917.912,95.438,540.777,538.777,0.0
52604.0,STARLINK-4013,PAYLOAD,2024-01-12 18:57:37,15.08837328,0.0001323,53.2161,211.6507,95.5929,264.5214,0.00012137,1.644e-05,0.0,0 STARLINK-4013,1 52604U 22052G   24012.79001219  .00001644  00000-0  12137-3 0  9998,2 52604  53.2161 211.6507 0001323  95.5929 264.5214 15.08837328 92434,6917.889,95.438,540.669,538.838,0.0
52604.0,STARLINK-4013,PAYLOAD,2024-01-12 22:08:23,15.08838588,0.0001396,53.2148,211.0565,100.4032,259.7118,0.00024571,3.625e-05,0.0,0 STARLINK-4013,1 52604U 22052G   24012.92249425  .00003625  00000-0  24571-3 0  9992,2 52604  53.2148 211.0565 0001396 100.4032 259.7118 15.08838588 92087,6917.885,95.438,540.715,538.784,0.0
52604.0,STARLINK-4013,PAYLOAD,2024-01-12 23:43:46,15.08839677,0.0001364,53.2142,210.7602,99.6457,260.4689,0.00038355,5.821e-05,0.0,0 STARLINK-4013,1 52604U 22052G   24012.98873619  .00005821  00000-0  38355-3 0  9991,2 52604  53.2142 210.7602 0001364  99.6457 260.4689 15.08839677 92097,6917.881,95.438,540.69,538.803,0.0
